<?xml version="1.0" encoding="UTF-8"?>
<gpx version="1.1" creator="antonio-seed-data"
     xmlns="http://www.topografix.com/GPX/1/1"
     xmlns:xsi="http://www.w3.org/2001/XMLSchema-instance"
     xsi:schemaLocation="http://www.topografix.com/GPX/1/1 http://www.topografix.com/GPX/1/1/gpx.xsd">
  <metadata>
    <name>5K Run for the Cure - Ottawa</name>
    <desc>Public route geometry for the CIBC Run for the Cure 5K course in Ottawa, ON, Canada (Canadian Cancer Society charity run). Retrieved from a public MapMyRun route page (route ID 23823300, mapmyrun.com/routes/view/23823300) on 2026-08-05. Distance per source: 5035.93 m. Used here only as a realistic, publicly available GPS loop for synthetic seed data -- not associated with any real runner or real activity.</desc>
  </metadata>
  <trk>
    <name>5K Run for the Cure - Ottawa</name>
    <trkseg>
      <trkpt lat="45.414539" lon="-75.718460"><ele>52.85</ele></trkpt>
      <trkpt lat="45.413515" lon="-75.719447"><ele>56.74</ele></trkpt>
      <trkpt lat="45.412445" lon="-75.720241"><ele>57.50</ele></trkpt>
      <trkpt lat="45.411888" lon="-75.721014"><ele>60.33</ele></trkpt>
      <trkpt lat="45.411512" lon="-75.722129"><ele>62.25</ele></trkpt>
      <trkpt lat="45.411030" lon="-75.724297"><ele>56.49</ele></trkpt>
      <trkpt lat="45.410939" lon="-75.726228"><ele>56.69</ele></trkpt>
      <trkpt lat="45.410924" lon="-75.727601"><ele>54.33</ele></trkpt>
      <trkpt lat="45.410834" lon="-75.728459"><ele>55.30</ele></trkpt>
      <trkpt lat="45.410352" lon="-75.729704"><ele>58.36</ele></trkpt>
      <trkpt lat="45.410186" lon="-75.730691"><ele>59.02</ele></trkpt>
      <trkpt lat="45.410382" lon="-75.732043"><ele>66.30</ele></trkpt>
      <trkpt lat="45.410698" lon="-75.733159"><ele>62.52</ele></trkpt>
      <trkpt lat="45.411014" lon="-75.734575"><ele>58.08</ele></trkpt>
      <trkpt lat="45.410638" lon="-75.734940"><ele>57.85</ele></trkpt>
      <trkpt lat="45.410156" lon="-75.734832"><ele>57.55</ele></trkpt>
      <trkpt lat="45.409026" lon="-75.734124"><ele>59.00</ele></trkpt>
      <trkpt lat="45.408348" lon="-75.736678"><ele>62.98</ele></trkpt>
      <trkpt lat="45.408363" lon="-75.736935"><ele>62.08</ele></trkpt>
      <trkpt lat="45.408182" lon="-75.737429"><ele>60.39</ele></trkpt>
      <trkpt lat="45.408182" lon="-75.737429"><ele>60.39</ele></trkpt>
      <trkpt lat="45.406586" lon="-75.736377"><ele>61.90</ele></trkpt>
      <trkpt lat="45.406013" lon="-75.738351"><ele>63.01</ele></trkpt>
      <trkpt lat="45.405727" lon="-75.739295"><ele>63.95</ele></trkpt>
      <trkpt lat="45.407324" lon="-75.740325"><ele>61.94</ele></trkpt>
      <trkpt lat="45.407640" lon="-75.740433"><ele>61.26</ele></trkpt>
      <trkpt lat="45.408725" lon="-75.739467"><ele>60.77</ele></trkpt>
      <trkpt lat="45.409297" lon="-75.739682"><ele>61.17</ele></trkpt>
      <trkpt lat="45.409674" lon="-75.740325"><ele>60.39</ele></trkpt>
      <trkpt lat="45.410578" lon="-75.739317"><ele>57.23</ele></trkpt>
      <trkpt lat="45.411210" lon="-75.737987"><ele>56.78</ele></trkpt>
      <trkpt lat="45.411210" lon="-75.737987"><ele>56.78</ele></trkpt>
      <trkpt lat="45.411572" lon="-75.737042"><ele>55.13</ele></trkpt>
      <trkpt lat="45.411572" lon="-75.735433"><ele>56.57</ele></trkpt>
      <trkpt lat="45.411376" lon="-75.733995"><ele>57.91</ele></trkpt>
      <trkpt lat="45.410819" lon="-75.732536"><ele>61.28</ele></trkpt>
      <trkpt lat="45.410563" lon="-75.730841"><ele>56.68</ele></trkpt>
      <trkpt lat="45.410532" lon="-75.729575"><ele>57.45</ele></trkpt>
      <trkpt lat="45.410969" lon="-75.727730"><ele>54.56</ele></trkpt>
      <trkpt lat="45.411075" lon="-75.726829"><ele>55.85</ele></trkpt>
      <trkpt lat="45.411180" lon="-75.724576"><ele>57.58</ele></trkpt>
      <trkpt lat="45.411722" lon="-75.722237"><ele>63.16</ele></trkpt>
      <trkpt lat="45.412069" lon="-75.721164"><ele>60.99</ele></trkpt>
      <trkpt lat="45.412581" lon="-75.720456"><ele>58.26</ele></trkpt>
      <trkpt lat="45.413831" lon="-75.719447"><ele>56.86</ele></trkpt>
      <trkpt lat="45.414946" lon="-75.717666"><ele>54.55</ele></trkpt>
      <trkpt lat="45.415006" lon="-75.717323"><ele>54.79</ele></trkpt>
      <trkpt lat="45.415097" lon="-75.717151"><ele>54.60</ele></trkpt>
    </trkseg>
  </trk>
</gpx>
