<?xml version="1.0" encoding="UTF-8"?>
<gpx version="1.1" creator="antonio-docs" xmlns="http://www.topografix.com/GPX/1/1">
  <metadata>
    <name>Ottawa River Pathway (LeBreton Flats to Tunney's Pasture)</name>
    <desc>Real public pathway used as the geographic basis for antonio's fabricated running example database. Source: OpenStreetMap contributors, way name "Ottawa River Pathway", ODbL.</desc>
  </metadata>
  <trk>
    <name>Ottawa River Pathway</name>
    <trkseg>
      <trkpt lat="45.4176389" lon="-75.7185285"></trkpt>
      <trkpt lat="45.4176019" lon="-75.7185631"></trkpt>
      <trkpt lat="45.4175645" lon="-75.7186603"></trkpt>
      <trkpt lat="45.4174630" lon="-75.7189560"></trkpt>
      <trkpt lat="45.4173330" lon="-75.7192040"></trkpt>
      <trkpt lat="45.4172490" lon="-75.7193172"></trkpt>
      <trkpt lat="45.4169910" lon="-75.7196650"></trkpt>
      <trkpt lat="45.4167590" lon="-75.7199150"></trkpt>
      <trkpt lat="45.4166804" lon="-75.7199730"></trkpt>
      <trkpt lat="45.4165980" lon="-75.7200310"></trkpt>
      <trkpt lat="45.4164755" lon="-75.7200799"></trkpt>
      <trkpt lat="45.4163530" lon="-75.7201153"></trkpt>
      <trkpt lat="45.4161730" lon="-75.7201470"></trkpt>
      <trkpt lat="45.4157020" lon="-75.7201480"></trkpt>
      <trkpt lat="45.4155220" lon="-75.7201160"></trkpt>
      <trkpt lat="45.4153470" lon="-75.7200550"></trkpt>
      <trkpt lat="45.4149010" lon="-75.7198410"></trkpt>
      <trkpt lat="45.4146170" lon="-75.7197620"></trkpt>
      <trkpt lat="45.4145238" lon="-75.7197491"></trkpt>
      <trkpt lat="45.4143290" lon="-75.7197220"></trkpt>
      <trkpt lat="45.4141054" lon="-75.7197290"></trkpt>
      <trkpt lat="45.4139437" lon="-75.7197633"></trkpt>
      <trkpt lat="45.4138979" lon="-75.7197731"></trkpt>
      <trkpt lat="45.4136231" lon="-75.7198442"></trkpt>
      <trkpt lat="45.4135093" lon="-75.7198847"></trkpt>
      <trkpt lat="45.4134226" lon="-75.7199346"></trkpt>
      <trkpt lat="45.4133473" lon="-75.7200125"></trkpt>
      <trkpt lat="45.4132927" lon="-75.7200912"></trkpt>
      <trkpt lat="45.4131044" lon="-75.7203178"></trkpt>
      <trkpt lat="45.4130499" lon="-75.7203728"></trkpt>
      <trkpt lat="45.4129874" lon="-75.7204150"></trkpt>
      <trkpt lat="45.4129243" lon="-75.7204753"></trkpt>
      <trkpt lat="45.4128615" lon="-75.7205541"></trkpt>
      <trkpt lat="45.4126707" lon="-75.7208696"></trkpt>
      <trkpt lat="45.4126492" lon="-75.7209095"></trkpt>
      <trkpt lat="45.4125512" lon="-75.7210736"></trkpt>
      <trkpt lat="45.4124788" lon="-75.7212012"></trkpt>
      <trkpt lat="45.4123883" lon="-75.7214373"></trkpt>
      <trkpt lat="45.4123388" lon="-75.7215711"></trkpt>
      <trkpt lat="45.4123041" lon="-75.7216832"></trkpt>
      <trkpt lat="45.4122629" lon="-75.7218441"></trkpt>
      <trkpt lat="45.4120250" lon="-75.7231003"></trkpt>
      <trkpt lat="45.4119715" lon="-75.7233574"></trkpt>
      <trkpt lat="45.4118815" lon="-75.7238071"></trkpt>
      <trkpt lat="45.4117816" lon="-75.7242133"></trkpt>
      <trkpt lat="45.4116989" lon="-75.7245903"></trkpt>
      <trkpt lat="45.4116567" lon="-75.7247988"></trkpt>
      <trkpt lat="45.4116342" lon="-75.7249965"></trkpt>
      <trkpt lat="45.4116141" lon="-75.7253907"></trkpt>
      <trkpt lat="45.4116048" lon="-75.7256503"></trkpt>
      <trkpt lat="45.4115777" lon="-75.7260388"></trkpt>
      <trkpt lat="45.4115030" lon="-75.7267978"></trkpt>
      <trkpt lat="45.4114822" lon="-75.7269559"></trkpt>
      <trkpt lat="45.4114411" lon="-75.7271243"></trkpt>
      <trkpt lat="45.4112592" lon="-75.7276866"></trkpt>
      <trkpt lat="45.4112261" lon="-75.7278157"></trkpt>
      <trkpt lat="45.4112148" lon="-75.7278772"></trkpt>
      <trkpt lat="45.4112087" lon="-75.7279397"></trkpt>
      <trkpt lat="45.4112129" lon="-75.7285420"></trkpt>
      <trkpt lat="45.4112033" lon="-75.7285966"></trkpt>
      <trkpt lat="45.4111841" lon="-75.7287057"></trkpt>
      <trkpt lat="45.4110938" lon="-75.7288874"></trkpt>
      <trkpt lat="45.4109810" lon="-75.7290599"></trkpt>
      <trkpt lat="45.4109459" lon="-75.7290951"></trkpt>
      <trkpt lat="45.4109176" lon="-75.7291147"></trkpt>
      <trkpt lat="45.4107935" lon="-75.7291835"></trkpt>
      <trkpt lat="45.4107639" lon="-75.7292057"></trkpt>
      <trkpt lat="45.4107370" lon="-75.7292332"></trkpt>
      <trkpt lat="45.4107173" lon="-75.7292605"></trkpt>
      <trkpt lat="45.4106936" lon="-75.7293247"></trkpt>
      <trkpt lat="45.4106821" lon="-75.7293764"></trkpt>
      <trkpt lat="45.4106143" lon="-75.7297950"></trkpt>
      <trkpt lat="45.4105969" lon="-75.7299571"></trkpt>
      <trkpt lat="45.4105870" lon="-75.7300955"></trkpt>
      <trkpt lat="45.4105756" lon="-75.7305551"></trkpt>
      <trkpt lat="45.4105782" lon="-75.7306862"></trkpt>
      <trkpt lat="45.4105812" lon="-75.7307450"></trkpt>
      <trkpt lat="45.4105843" lon="-75.7307902"></trkpt>
      <trkpt lat="45.4106004" lon="-75.7310477"></trkpt>
      <trkpt lat="45.4106305" lon="-75.7313003"></trkpt>
      <trkpt lat="45.4106497" lon="-75.7314171"></trkpt>
      <trkpt lat="45.4107115" lon="-75.7317039"></trkpt>
      <trkpt lat="45.4107651" lon="-75.7319527"></trkpt>
      <trkpt lat="45.4107990" lon="-75.7321285"></trkpt>
      <trkpt lat="45.4108517" lon="-75.7324306"></trkpt>
      <trkpt lat="45.4108832" lon="-75.7325464"></trkpt>
      <trkpt lat="45.4108967" lon="-75.7325849"></trkpt>
      <trkpt lat="45.4109221" lon="-75.7326440"></trkpt>
      <trkpt lat="45.4109871" lon="-75.7327589"></trkpt>
      <trkpt lat="45.4110361" lon="-75.7328491"></trkpt>
      <trkpt lat="45.4110575" lon="-75.7328932"></trkpt>
      <trkpt lat="45.4112755" lon="-75.7333753"></trkpt>
      <trkpt lat="45.4113300" lon="-75.7334722"></trkpt>
      <trkpt lat="45.4113535" lon="-75.7335020"></trkpt>
      <trkpt lat="45.4113988" lon="-75.7335386"></trkpt>
      <trkpt lat="45.4114227" lon="-75.7335524"></trkpt>
      <trkpt lat="45.4115126" lon="-75.7335935"></trkpt>
      <trkpt lat="45.4116852" lon="-75.7336461"></trkpt>
      <trkpt lat="45.4117192" lon="-75.7336604"></trkpt>
      <trkpt lat="45.4117884" lon="-75.7337000"></trkpt>
      <trkpt lat="45.4118490" lon="-75.7337475"></trkpt>
      <trkpt lat="45.4120219" lon="-75.7339282"></trkpt>
      <trkpt lat="45.4120652" lon="-75.7339689"></trkpt>
      <trkpt lat="45.4123955" lon="-75.7342445"></trkpt>
      <trkpt lat="45.4126903" lon="-75.7344812"></trkpt>
      <trkpt lat="45.4128024" lon="-75.7345640"></trkpt>
      <trkpt lat="45.4128465" lon="-75.7346035"></trkpt>
      <trkpt lat="45.4129785" lon="-75.7347505"></trkpt>
      <trkpt lat="45.4130330" lon="-75.7348406"></trkpt>
      <trkpt lat="45.4130561" lon="-75.7348853"></trkpt>
      <trkpt lat="45.4130800" lon="-75.7349401"></trkpt>
      <trkpt lat="45.4130967" lon="-75.7349896"></trkpt>
      <trkpt lat="45.4131183" lon="-75.7350894"></trkpt>
      <trkpt lat="45.4131214" lon="-75.7351390"></trkpt>
      <trkpt lat="45.4131201" lon="-75.7351932"></trkpt>
      <trkpt lat="45.4131134" lon="-75.7352455"></trkpt>
      <trkpt lat="45.4131002" lon="-75.7353139"></trkpt>
      <trkpt lat="45.4130703" lon="-75.7354266"></trkpt>
      <trkpt lat="45.4130469" lon="-75.7354809"></trkpt>
      <trkpt lat="45.4130008" lon="-75.7355665"></trkpt>
      <trkpt lat="45.4129715" lon="-75.7356139"></trkpt>
      <trkpt lat="45.4129168" lon="-75.7356796"></trkpt>
      <trkpt lat="45.4128492" lon="-75.7357454"></trkpt>
      <trkpt lat="45.4127944" lon="-75.7357903"></trkpt>
      <trkpt lat="45.4125938" lon="-75.7359203"></trkpt>
      <trkpt lat="45.4123806" lon="-75.7360641"></trkpt>
      <trkpt lat="45.4123168" lon="-75.7361251"></trkpt>
      <trkpt lat="45.4122184" lon="-75.7362395"></trkpt>
      <trkpt lat="45.4121593" lon="-75.7363270"></trkpt>
      <trkpt lat="45.4121147" lon="-75.7364082"></trkpt>
      <trkpt lat="45.4120614" lon="-75.7365207"></trkpt>
      <trkpt lat="45.4120581" lon="-75.7363417"></trkpt>
      <trkpt lat="45.4120409" lon="-75.7361812"></trkpt>
      <trkpt lat="45.4120119" lon="-75.7360922"></trkpt>
      <trkpt lat="45.4119625" lon="-75.7360016"></trkpt>
      <trkpt lat="45.4119213" lon="-75.7359305"></trkpt>
    </trkseg>
    <trkseg>
      <trkpt lat="45.4092504" lon="-75.7442451"></trkpt>
      <trkpt lat="45.4092889" lon="-75.7442080"></trkpt>
      <trkpt lat="45.4093772" lon="-75.7441597"></trkpt>
      <trkpt lat="45.4095304" lon="-75.7441071"></trkpt>
      <trkpt lat="45.4095666" lon="-75.7440866"></trkpt>
      <trkpt lat="45.4095971" lon="-75.7440574"></trkpt>
      <trkpt lat="45.4096233" lon="-75.7440181"></trkpt>
      <trkpt lat="45.4096517" lon="-75.7439524"></trkpt>
      <trkpt lat="45.4101207" lon="-75.7426767"></trkpt>
      <trkpt lat="45.4101518" lon="-75.7425717"></trkpt>
      <trkpt lat="45.4101707" lon="-75.7424798"></trkpt>
      <trkpt lat="45.4101784" lon="-75.7424038"></trkpt>
      <trkpt lat="45.4101821" lon="-75.7423098"></trkpt>
      <trkpt lat="45.4101697" lon="-75.7422032"></trkpt>
      <trkpt lat="45.4101161" lon="-75.7418792"></trkpt>
      <trkpt lat="45.4101108" lon="-75.7418173"></trkpt>
      <trkpt lat="45.4101222" lon="-75.7417059"></trkpt>
      <trkpt lat="45.4101326" lon="-75.7416706"></trkpt>
      <trkpt lat="45.4101477" lon="-75.7416312"></trkpt>
      <trkpt lat="45.4101705" lon="-75.7415947"></trkpt>
      <trkpt lat="45.4102629" lon="-75.7414828"></trkpt>
      <trkpt lat="45.4102989" lon="-75.7414306"></trkpt>
      <trkpt lat="45.4103158" lon="-75.7414062"></trkpt>
      <trkpt lat="45.4103791" lon="-75.7413314"></trkpt>
      <trkpt lat="45.4104083" lon="-75.7412969"></trkpt>
      <trkpt lat="45.4104976" lon="-75.7411684"></trkpt>
      <trkpt lat="45.4106090" lon="-75.7409972"></trkpt>
      <trkpt lat="45.4105979" lon="-75.7411603"></trkpt>
      <trkpt lat="45.4105785" lon="-75.7412931"></trkpt>
      <trkpt lat="45.4105654" lon="-75.7414132"></trkpt>
      <trkpt lat="45.4105680" lon="-75.7415755"></trkpt>
      <trkpt lat="45.4105669" lon="-75.7418413"></trkpt>
      <trkpt lat="45.4105744" lon="-75.7419862"></trkpt>
      <trkpt lat="45.4105889" lon="-75.7422539"></trkpt>
      <trkpt lat="45.4106158" lon="-75.7425322"></trkpt>
      <trkpt lat="45.4106655" lon="-75.7434090"></trkpt>
      <trkpt lat="45.4106757" lon="-75.7436624"></trkpt>
      <trkpt lat="45.4106779" lon="-75.7437800"></trkpt>
      <trkpt lat="45.4106712" lon="-75.7439090"></trkpt>
      <trkpt lat="45.4106614" lon="-75.7439937"></trkpt>
      <trkpt lat="45.4106447" lon="-75.7440737"></trkpt>
      <trkpt lat="45.4106220" lon="-75.7441681"></trkpt>
      <trkpt lat="45.4105967" lon="-75.7442556"></trkpt>
      <trkpt lat="45.4105639" lon="-75.7443389"></trkpt>
      <trkpt lat="45.4105325" lon="-75.7444187"></trkpt>
      <trkpt lat="45.4104996" lon="-75.7444868"></trkpt>
      <trkpt lat="45.4104555" lon="-75.7445525"></trkpt>
      <trkpt lat="45.4104014" lon="-75.7446194"></trkpt>
      <trkpt lat="45.4102875" lon="-75.7447386"></trkpt>
      <trkpt lat="45.4102263" lon="-75.7447939"></trkpt>
      <trkpt lat="45.4101424" lon="-75.7448481"></trkpt>
      <trkpt lat="45.4100642" lon="-75.7448805"></trkpt>
      <trkpt lat="45.4099759" lon="-75.7449091"></trkpt>
      <trkpt lat="45.4099019" lon="-75.7449198"></trkpt>
      <trkpt lat="45.4097831" lon="-75.7449451"></trkpt>
      <trkpt lat="45.4096324" lon="-75.7449515"></trkpt>
    </trkseg>
    <trkseg>
      <trkpt lat="45.4106090" lon="-75.7409972"></trkpt>
      <trkpt lat="45.4106320" lon="-75.7409511"></trkpt>
      <trkpt lat="45.4106547" lon="-75.7408974"></trkpt>
      <trkpt lat="45.4106729" lon="-75.7408429"></trkpt>
      <trkpt lat="45.4106822" lon="-75.7407703"></trkpt>
      <trkpt lat="45.4106887" lon="-75.7405925"></trkpt>
      <trkpt lat="45.4107009" lon="-75.7404220"></trkpt>
      <trkpt lat="45.4107147" lon="-75.7402864"></trkpt>
      <trkpt lat="45.4107541" lon="-75.7400200"></trkpt>
      <trkpt lat="45.4107942" lon="-75.7398663"></trkpt>
      <trkpt lat="45.4108307" lon="-75.7397890"></trkpt>
      <trkpt lat="45.4108784" lon="-75.7397088"></trkpt>
      <trkpt lat="45.4109069" lon="-75.7396469"></trkpt>
      <trkpt lat="45.4109544" lon="-75.7395177"></trkpt>
      <trkpt lat="45.4109773" lon="-75.7394353"></trkpt>
      <trkpt lat="45.4109986" lon="-75.7393345"></trkpt>
      <trkpt lat="45.4110341" lon="-75.7391361"></trkpt>
      <trkpt lat="45.4110525" lon="-75.7390608"></trkpt>
      <trkpt lat="45.4111226" lon="-75.7388741"></trkpt>
      <trkpt lat="45.4111868" lon="-75.7387265"></trkpt>
      <trkpt lat="45.4113447" lon="-75.7383938"></trkpt>
      <trkpt lat="45.4116100" lon="-75.7376998"></trkpt>
      <trkpt lat="45.4118295" lon="-75.7371409"></trkpt>
      <trkpt lat="45.4119757" lon="-75.7367417"></trkpt>
      <trkpt lat="45.4120614" lon="-75.7365207"></trkpt>
    </trkseg>
    <trkseg>
      <trkpt lat="45.4102656" lon="-75.7349458"></trkpt>
      <trkpt lat="45.4103159" lon="-75.7349764"></trkpt>
      <trkpt lat="45.4103424" lon="-75.7350021"></trkpt>
      <trkpt lat="45.4105563" lon="-75.7352080"></trkpt>
      <trkpt lat="45.4106013" lon="-75.7352201"></trkpt>
      <trkpt lat="45.4106488" lon="-75.7352296"></trkpt>
      <trkpt lat="45.4106928" lon="-75.7352383"></trkpt>
      <trkpt lat="45.4107389" lon="-75.7352586"></trkpt>
      <trkpt lat="45.4108404" lon="-75.7353017"></trkpt>
      <trkpt lat="45.4113597" lon="-75.7356021"></trkpt>
      <trkpt lat="45.4116318" lon="-75.7357589"></trkpt>
      <trkpt lat="45.4119213" lon="-75.7359305"></trkpt>
      <trkpt lat="45.4122826" lon="-75.7360443"></trkpt>
      <trkpt lat="45.4123425" lon="-75.7360555"></trkpt>
      <trkpt lat="45.4123806" lon="-75.7360641"></trkpt>
    </trkseg>
  </trk>
</gpx>
